{
  "type": "FeatureCollection",
  "features": [
    {
      "type": "Feature",
      "properties": {
        "norad_id": 24876,
        "name": "GPS BIIR-2  (PRN 13)",
        "group": "gps-ops",
        "lat": -32.878210347328,
        "lon": 80.25796795449257,
        "alt_km": 20219.31252197492,
        "timestamp": "2025-12-03T04:52:29.895765+00:00",
        "meta_object_name": "GPS BIIR-2  (PRN 13)",
        "meta_object_id": "1997-035A",
        "meta_epoch": "2025-12-02T18:15:55.353312",
        "meta_mean_motion": 2.00563438,
        "meta_eccentricity": 0.0096668,
        "meta_inclination": 55.8903,
        "meta_ra_of_asc_node": 106.2592,
        "meta_arg_of_pericenter": 57.0264,
        "meta_mean_anomaly": 303.869,
        "meta_ephemeris_type": 0,
        "meta_classification_type": "U",
        "meta_norad_cat_id": 24876,
        "meta_element_set_no": 999,
        "meta_rev_at_epoch": 20801,
        "meta_bstar": 0,
        "meta_mean_motion_dot": 2.2e-07,
        "meta_mean_motion_ddot": 0,
        "tle_line1": "1 24876U 97035A   25336.76105733  .00000022  00000+0  00000+0 0  9994",
        "tle_line2": "2 24876  55.8903 106.2592 0096668  57.0264 303.8690  2.00563438208014"
      },
      "geometry": {
        "type": "Point",
        "coordinates": [
          80.25796795449257,
          -32.878210347328
        ]
      }
    },
    {
      "type": "Feature",
      "properties": {
        "norad_id": 26360,
        "name": "GPS BIIR-4  (PRN 20)",
        "group": "gps-ops",
        "lat": 40.169922109388104,
        "lon": 63.40575308140644,
        "alt_km": 20278.847362137472,
        "timestamp": "2025-12-03T04:52:29.895791+00:00",
        "meta_object_name": "GPS BIIR-4  (PRN 20)",
        "meta_object_id": "2000-025A",
        "meta_epoch": "2025-12-02T20:35:54.014784",
        "meta_mean_motion": 2.00568363,
        "meta_eccentricity": 0.0038787,
        "meta_inclination": 55.0394,
        "meta_ra_of_asc_node": 27.2378,
        "meta_arg_of_pericenter": 241.0277,
        "meta_mean_anomaly": 281.8474,
        "meta_ephemeris_type": 0,
        "meta_classification_type": "U",
        "meta_norad_cat_id": 26360,
        "meta_element_set_no": 999,
        "meta_rev_at_epoch": 18733,
        "meta_bstar": 0,
        "meta_mean_motion_dot": -7e-07,
        "meta_mean_motion_ddot": 0,
        "tle_line1": "1 26360U 00025A   25336.85826406 -.00000070  00000+0  00000+0 0  9998",
        "tle_line2": "2 26360  55.0394  27.2378 0038787 241.0277 281.8474  2.00568363187339"
      },
      "geometry": {
        "type": "Point",
        "coordinates": [
          63.40575308140644,
          40.169922109388104
        ]
      }
    },
    {
      "type": "Feature",
      "properties": {
        "norad_id": 26407,
        "name": "GPS BIIR-5  (PRN 22)",
        "group": "gps-ops",
        "lat": -50.37805859842747,
        "lon": 101.01405659138038,
        "alt_km": 19975.54739561916,
        "timestamp": "2025-12-03T04:52:29.895808+00:00",
        "meta_object_name": "GPS BIIR-5  (PRN 22)",
        "meta_object_id": "2000-040A",
        "meta_epoch": "2025-12-02T20:35:05.713728",
        "meta_mean_motion": 2.00567701,
        "meta_eccentricity": 0.0126556,
        "meta_inclination": 54.8933,
        "meta_ra_of_asc_node": 222.9621,
        "meta_arg_of_pericenter": 301.6247,
        "meta_mean_anomaly": 60.4206,
        "meta_ephemeris_type": 0,
        "meta_classification_type": "U",
        "meta_norad_cat_id": 26407,
        "meta_element_set_no": 999,
        "meta_rev_at_epoch": 18601,
        "meta_bstar": 0,
        "meta_mean_motion_dot": 5.8e-07,
        "meta_mean_motion_ddot": 0,
        "tle_line1": "1 26407U 00040A   25336.85770502  .00000058  00000+0  00000+0 0  9997",
        "tle_line2": "2 26407  54.8933 222.9621 0126556 301.6247  60.4206  2.00567701186017"
      },
      "geometry": {
        "type": "Point",
        "coordinates": [
          101.01405659138038,
          -50.37805859842747
        ]
      }
    },
    {
      "type": "Feature",
      "properties": {
        "norad_id": 27663,
        "name": "GPS BIIR-8  (PRN 16)",
        "group": "gps-ops",
        "lat": 21.374948652233186,
        "lon": -121.29708672530607,
        "alt_km": 19824.357975942887,
        "timestamp": "2025-12-03T04:52:29.895822+00:00",
        "meta_object_name": "GPS BIIR-8  (PRN 16)",
        "meta_object_id": "2003-005A",
        "meta_epoch": "2025-12-01T07:27:05.783040",
        "meta_mean_motion": 2.00571429,
        "meta_eccentricity": 0.01469845,
        "meta_inclination": 54.9264,
        "meta_ra_of_asc_node": 222.833,
        "meta_arg_of_pericenter": 51.6397,
        "meta_mean_anomaly": 48.9538,
        "meta_ephemeris_type": 0,
        "meta_classification_type": "U",
        "meta_norad_cat_id": 27663,
        "meta_element_set_no": 999,
        "meta_rev_at_epoch": 16734,
        "meta_bstar": 0,
        "meta_mean_motion_dot": 4.8e-07,
        "meta_mean_motion_ddot": 0,
        "tle_line1": "1 27663U 03005A   25335.31048360  .00000048  00000+0  00000+0 0  9995",
        "tle_line2": "2 27663  54.9264 222.8330 0146984  51.6397  48.9538  2.00571429167347"
      },
      "geometry": {
        "type": "Point",
        "coordinates": [
          -121.29708672530607,
          21.374948652233186
        ]
      }
    },
    {
      "type": "Feature",
      "properties": {
        "norad_id": 28190,
        "name": "GPS BIIR-11 (PRN 19)",
        "group": "gps-ops",
        "lat": -5.573206377843414,
        "lon": 107.49711482820739,
        "alt_km": 19911.9453734798,
        "timestamp": "2025-12-03T04:52:29.895835+00:00",
        "meta_object_name": "GPS BIIR-11 (PRN 19)",
        "meta_object_id": "2004-009A",
        "meta_epoch": "2025-11-26T05:14:39.537024",
        "meta_mean_motion": 2.00561394,
        "meta_eccentricity": 0.01080929,
        "meta_inclination": 55.0011,
        "meta_ra_of_asc_node": 283.885,
        "meta_arg_of_pericenter": 167.3745,
        "meta_mean_anomaly": 15.773,
        "meta_ephemeris_type": 0,
        "meta_classification_type": "U",
        "meta_norad_cat_id": 28190,
        "meta_element_set_no": 999,
        "meta_rev_at_epoch": 15887,
        "meta_bstar": 0,
        "meta_mean_motion_dot": -2.4e-07,
        "meta_mean_motion_ddot": 0,
        "tle_line1": "1 28190U 04009A   25330.21851316 -.00000024  00000+0  00000+0 0  9998",
        "tle_line2": "2 28190  55.0011 283.8850 0108092 167.3745  15.7730  2.00561394158873"
      },
      "geometry": {
        "type": "Point",
        "coordinates": [
          107.49711482820739,
          -5.573206377843414
        ]
      }
    },
    {
      "type": "Feature",
      "properties": {
        "norad_id": 28474,
        "name": "GPS BIIR-13 (PRN 02)",
        "group": "gps-ops",
        "lat": -47.82373062243976,
        "lon": -157.18416187825747,
        "alt_km": 19984.070282898905,
        "timestamp": "2025-12-03T04:52:29.895848+00:00",
        "meta_object_name": "GPS BIIR-13 (PRN 02)",
        "meta_object_id": "2004-045A",
        "meta_epoch": "2025-12-02T14:51:16.747776",
        "meta_mean_motion": 2.00568864,
        "meta_eccentricity": 0.017054,
        "meta_inclination": 55.2456,
        "meta_ra_of_asc_node": 332.8132,
        "meta_arg_of_pericenter": 308.8127,
        "meta_mean_anomaly": 235.5488,
        "meta_ephemeris_type": 0,
        "meta_classification_type": "U",
        "meta_norad_cat_id": 28474,
        "meta_element_set_no": 999,
        "meta_rev_at_epoch": 15448,
        "meta_bstar": 0,
        "meta_mean_motion_dot": -6.2e-07,
        "meta_mean_motion_ddot": 0,
        "tle_line1": "1 28474U 04045A   25336.61894384 -.00000062  00000+0  00000+0 0  9997",
        "tle_line2": "2 28474  55.2456 332.8132 0170540 308.8127 235.5488  2.00568864154488"
      },
      "geometry": {
        "type": "Point",
        "coordinates": [
          -157.18416187825747,
          -47.82373062243976
        ]
      }
    },
    {
      "type": "Feature",
      "properties": {
        "norad_id": 28874,
        "name": "GPS BIIRM-1 (PRN 17)",
        "group": "gps-ops",
        "lat": -18.978878493892136,
        "lon": 114.96824460921309,
        "alt_km": 20182.24035653049,
        "timestamp": "2025-12-03T04:52:29.895861+00:00",
        "meta_object_name": "GPS BIIRM-1 (PRN 17)",
        "meta_object_id": "2005-038A",
        "meta_epoch": "2025-12-02T16:12:27.400896",
        "meta_mean_motion": 2.00548806,
        "meta_eccentricity": 0.01328204,
        "meta_inclination": 55.0411,
        "meta_ra_of_asc_node": 281.1063,
        "meta_arg_of_pericenter": 293.4087,
        "meta_mean_anomaly": 250.3584,
        "meta_ephemeris_type": 0,
        "meta_classification_type": "U",
        "meta_norad_cat_id": 28874,
        "meta_element_set_no": 999,
        "meta_rev_at_epoch": 14789,
        "meta_bstar": 0,
        "meta_mean_motion_dot": -4.3e-07,
        "meta_mean_motion_ddot": 0,
        "tle_line1": "1 28874U 05038A   25336.67531714 -.00000043  00000+0  00000+0 0  9994",
        "tle_line2": "2 28874  55.0411 281.1063 0132820 293.4087 250.3584  2.00548806147896"
      },
      "geometry": {
        "type": "Point",
        "coordinates": [
          114.96824460921309,
          -18.978878493892136
        ]
      }
    }
  ]
}